NORAD_CAT_ID,OBJECT_NAME,OBJECT_TYPE,EPOCH,MEAN_MOTION,ECCENTRICITY,INCLINATION,RA_OF_ASC_NODE,ARG_OF_PERICENTER,MEAN_ANOMALY,BSTAR,MEAN_MOTION_DOT,MEAN_MOTION_DDOT,TLE_LINE0,TLE_LINE1,TLE_LINE2,SEMIMAJOR_AXIS,PERIOD,APOGEE,PERIGEE,DECAYED
49450.0,STARLINK-3127,PAYLOAD,2022-12-10 09:22:53,15.08870695,0.0001833,53.2154,140.1302,38.0566,322.0555,-0.0002091,-3.617e-05,0.0,0 STARLINK-3127,1 49450U 21104AU  22344.39089143 -.00003617  00000-0 -20910-3 0  9996,2 49450  53.2154 140.1302 0001833  38.0566 322.0555 15.08870695 60904,6917.7869999999975,95.436,540.92,538.384,0.0
49450.0,STARLINK-3127,PAYLOAD,2022-12-10 14:09:04,15.08798866,0.0002266,53.2175,139.2384,353.8369,6.2595,0.00052372,8.048e-05,0.0,0 STARLINK-3127,1 49450U 21104AU  22344.58963474  .00008048  00000-0  52372-3 0  9993,2 49450  53.2175 139.2384 0002266 353.8369   6.2595 15.08798866 60124,6918.005999999999,95.44,541.439,538.304,0.0
49450.0,STARLINK-3127,PAYLOAD,2022-12-10 17:19:50,15.08843669,0.000313,53.2171,138.643,44.8357,315.2888,-5.7718e-05,-1.207e-05,0.0,0 STARLINK-3127,1 49450U 21104AU  22344.72211157 -.00001207  00000-0 -57718-4 0  9995,2 49450  53.2171 138.6430 0003130  44.8357 315.2888 15.08843669 60951,6917.869000000002,95.437,541.899,537.569,0.0
49450.0,STARLINK-3127,PAYLOAD,2022-12-11 15:35:14,15.08801556,0.0002348,53.2182,134.4807,24.1489,335.9613,0.00054814,8.437e-05,0.0,0 STARLINK-3127,1 49450U 21104AU  22345.64947544  .00008437  00000-0  54814-3 0  9996,2 49450  53.2182 134.4807 0002348  24.1489 335.9613 15.08801556 61092,6917.998000000001,95.44,541.487,538.239,0.0
49450.0,STARLINK-3127,PAYLOAD,2022-12-11 21:56:47,15.08835475,0.0003404,53.2176,133.2889,48.5709,311.5575,1.1987e-05,-9.8e-07,0.0,0 STARLINK-3127,1 49450U 21104AU  22345.91443450 -.00000098  00000-0  11987-4 0  9994,2 49450  53.2176 133.2889 0003404  48.5709 311.5575 15.08835475 61130,6917.894,95.438,542.114,537.404,0.0
49450.0,STARLINK-3127,PAYLOAD,2022-12-12 10:39:51,15.08837855,0.0003102,53.2179,130.9077,51.9155,308.2116,1.8426e-05,5e-08,0.0,0 STARLINK-3127,1 49450U 21104AU  22346.44435168  .00000005  00000-0  18426-4 0  9992,2 49450  53.2179 130.9077 0003102  51.9155 308.2116 15.08837855 60401,6917.887,95.438,541.898,537.606,0.0
49450.0,STARLINK-3127,PAYLOAD,2022-12-13 10:30:39,15.08837539,0.0003201,53.2178,126.4477,48.37,311.7566,4.9244e-05,4.95e-06,0.0,0 STARLINK-3127,1 49450U 21104AU  22347.43795341  .00000495  00000-0  49244-4 0  9999,2 49450  53.2178 126.4477 0003201  48.3700 311.7566 15.08837539 61363,6917.888000000001,95.438,541.967,537.538,0.0
49450.0,STARLINK-3127,PAYLOAD,2022-12-14 02:24:30,15.088503400000002,0.0002878999999999,53.2185,123.4741,49.9441,310.1803,-0.00016757,-2.955e-05,0.0,0 STARLINK-3127,1 49450U 21104AU  22348.10035157 -.00002955  00000-0 -16757-3 0  9993,2 49450  53.2185 123.4741 0002879  49.9441 310.1803 15.08850340 60654,6917.849,95.437,541.705,537.722,0.0
49450.0,STARLINK-3127,PAYLOAD,2022-12-14 16:42:58,15.08845016,0.0002905,53.2167,120.7968,51.2849,308.8402,2.6377e-05,1.31e-06,0.0,0 STARLINK-3127,1 49450U 21104AU  22348.69651044  .00000131  00000-0  26377-4 0  9998,2 49450  53.2167 120.7968 0002905  51.2849 308.8402 15.08845016 61556,6917.865,95.437,541.74,537.72,0.0
49450.0,STARLINK-3127,PAYLOAD,2022-12-15 02:15:18,15.08834717,0.0002826,53.217,119.013,51.8715,308.2531,2.1343e-06,-2.55e-06,0.0,0 STARLINK-3127,1 49450U 21104AU  22349.09395861 -.00000255  00000-0  21343-5 0  9992,2 49450  53.2170 119.0130 0002826  51.8715 308.2531 15.08834717 61612,6917.897,95.438,541.717,537.807,0.0
49450.0,STARLINK-3127,PAYLOAD,2022-12-15 13:22:59,15.08846316,0.0002972,53.2164,116.9317,52.6627,307.4636,0.00010874,1.443e-05,0.0,0 STARLINK-3127,1 49450U 21104AU  22349.55762803  .00001443  00000-0  10874-3 0  9991,2 49450  53.2164 116.9317 0002972  52.6627 307.4636 15.08846316 60873,6917.861,95.437,541.7819999999998,537.67,0.0
49450.0,STARLINK-3127,PAYLOAD,2022-12-15 14:58:21,15.08849121,0.0002925,53.2178,116.6344,52.5995,307.5263,0.00013174,1.809e-05,0.0,0 STARLINK-3127,1 49450U 21104AU  22349.62386551  .00001809  00000-0  13174-3 0  9993,2 49450  53.2178 116.6344 0002925  52.5995 307.5263 15.08849121 61695,6917.853,95.437,541.741,537.694,0.0
49450.0,STARLINK-3127,PAYLOAD,2022-12-15 18:09:08,15.08848427,0.0002901,53.2179,116.0399,51.7953,308.33,0.00012052,1.631e-05,0.0,0 STARLINK-3127,1 49450U 21104AU  22349.75634546  .00001631  00000-0  12052-3 0  9994,2 49450  53.2179 116.0399 0002901  51.7953 308.3300 15.08848427 60901,6917.855,95.437,541.727,537.7130000000002,0.0
49450.0,STARLINK-3127,PAYLOAD,2022-12-16 02:06:04,15.08843813,0.0002721,53.2174,114.5526,51.8112,308.3125,2.1117e-05,4.8e-07,0.0,0 STARLINK-3127,1 49450U 21104AU  22350.08755008  .00000048  00000-0  21117-4 0  9993,2 49450  53.2174 114.5526 0002721  51.8112 308.3125 15.08843813 61763,6917.869000000002,95.437,541.616,537.851,0.0
49450.0,STARLINK-3127,PAYLOAD,2022-12-16 13:13:46,15.08839646,0.000272,53.218,112.4707,55.1178,305.0069,-1.3215e-05,-4.99e-06,0.0,0 STARLINK-3127,1 49450U 21104AU  22350.55123339 -.00000499  00000-0 -13215-4 0  9993,2 49450  53.2180 112.4707 0002720  55.1178 305.0069 15.08839646 61025,6917.880999999999,95.438,541.628,537.865,0.0
49450.0,STARLINK-3127,PAYLOAD,2022-12-16 17:59:56,15.08836391,0.0002997,53.2182,111.5795,52.433,307.6934,3.2833e-05,2.34e-06,0.0,0 STARLINK-3127,1 49450U 21104AU  22350.74995429  .00000234  00000-0  32833-4 0  9993,2 49450  53.2182 111.5795 0002997  52.4330 307.6934 15.08836391 61865,6917.891,95.438,541.83,537.683,0.0
49450.0,STARLINK-3127,PAYLOAD,2022-12-16 19:35:19,15.08837817,0.000292,53.2168,111.2824,49.3765,310.7481,-8.6561e-05,-1.666e-05,0.0,0 STARLINK-3127,1 49450U 21104AU  22350.81619733 -.00001666  00000-0 -86561-4 0  9991,2 49450  53.2168 111.2824 0002920  49.3765 310.7481 15.08837817 61060,6917.887,95.438,541.7719999999998,537.732,0.0
49450.0,STARLINK-3127,PAYLOAD,2022-12-17 11:29:10,15.08842976,0.0002988,53.217,108.3089,52.739,307.3874,-1.4913e-05,-5.26e-06,0.0,0 STARLINK-3127,1 49450U 21104AU  22351.47859328 -.00000526  00000-0 -14913-4 0  9996,2 49450  53.2170 108.3089 0002988  52.7390 307.3874 15.08842976 61160,6917.871,95.437,541.803,537.669,0.0
49450.0,STARLINK-3127,PAYLOAD,2022-12-17 14:39:56,15.08846205,0.0002949,53.2172,107.7137,54.0653,306.0613,1.4897e-05,-5.2e-07,0.0,0 STARLINK-3127,1 49450U 21104AU  22351.61106973 -.00000052  00000-0  14897-4 0  9997,2 49450  53.2172 107.7137 0002949  54.0653 306.0613 15.08846205 61990,6917.861,95.437,541.7669999999998,537.686,0.0
49450.0,STARLINK-3127,PAYLOAD,2022-12-18 08:09:12,15.08828647,0.000274,53.2191,104.4443,50.1645,309.9588,-1.9633000000000003e-06,-3.2e-06,0.0,0 STARLINK-3127,1 49450U 21104AU  22352.33972240 -.00000320  00000-0 -19633-5 0  9998,2 49450  53.2191 104.4443 0002740  50.1645 309.9588 15.08828647 62109,6917.915,95.438,541.6759999999998,537.885,0.0
49450.0,STARLINK-3127,PAYLOAD,2022-12-18 11:19:58,15.08828635,0.0002743,53.2193,103.8498,50.3871,309.7363,-3.6125e-06,-3.46e-06,0.0,0 STARLINK-3127,1 49450U 21104AU  22352.47220325 -.00000346  00000-0 -36125-5 0  9996,2 49450  53.2193 103.8498 0002743  50.3871 309.7363 15.08828635 61318,6917.915,95.438,541.678,537.883,0.0
49450.0,STARLINK-3127,PAYLOAD,2022-12-18 17:41:30,15.08833639,0.0002731,53.2188,102.6602,47.7316,312.3908,2.2546e-05,7e-07,0.0,0 STARLINK-3127,1 49450U 21104AU  22352.73716060  .00000070  00000-0  22546-4 0  9994,2 49450  53.2188 102.6602 0002731  47.7316 312.3908 15.08833639 61356,6917.9,95.438,541.654,537.876,0.0
49450.0,STARLINK-3127,PAYLOAD,2022-12-19 07:59:59,15.08834665,0.0002748,53.2171,99.9824,46.4725,313.6495,4.6165e-05,4.46e-06,0.0,0 STARLINK-3127,1 49450U 21104AU  22353.33332323  .00000446  00000-0  46165-4 0  9997,2 49450  53.2171  99.9824 0002748  46.4725 313.6495 15.08834665 62255,6917.897,95.438,541.663,537.861,0.0
49450.0,STARLINK-3127,PAYLOAD,2022-12-19 17:32:17,15.08846075,0.0002744,53.2182,98.1995,45.2726,314.8489,7.0508e-05,8.34e-06,0.0,0 STARLINK-3127,1 49450U 21104AU  22353.73075554  .00000834  00000-0  70508-4 0  9990,2 49450  53.2182  98.1995 0002744  45.2726 314.8489 15.08846075 62312,6917.861999999999,95.437,541.625,537.8290000000002,0.0
49450.0,STARLINK-3127,PAYLOAD,2022-12-20 11:01:31,15.08846074,0.0002575,53.2183,94.9273,39.6139,320.5041,0.00011174,1.491e-05,0.0,0 STARLINK-3127,1 49450U 21104AU  22354.45939235  .00001491  00000-0  11174-3 0  9998,2 49450  53.2183  94.9273 0002575  39.6139 320.5041 15.08846074 61612,6917.861999999999,95.437,541.508,537.945,0.0
49450.0,STARLINK-3127,PAYLOAD,2022-12-21 10:52:20,15.08827043,0.0002648999999999,53.2182,90.4674,41.0088,319.1103,-6.8113e-05,-1.372e-05,0.0,0 STARLINK-3127,1 49450U 21104AU  22355.45301215 -.00001372  00000-0 -68113-4 0  9996,2 49450  53.2182  90.4674 0002649  41.0088 319.1103 15.08827043 61763,6917.92,95.438,541.618,537.952,0.0
49450.0,STARLINK-3127,PAYLOAD,2022-12-21 14:03:06,15.08828515,0.0003275,53.2182,89.8714,36.9088,323.2129,-0.00013157,-2.382e-05,0.0,0 STARLINK-3127,1 49450U 21104AU  22355.58549556 -.00002382  00000-0 -13157-3 0  9991,2 49450  53.2182  89.8714 0003275  36.9088 323.2129 15.08828515 62590,6917.915,95.438,542.0459999999998,537.515,0.0
49450.0,STARLINK-3127,PAYLOAD,2022-12-21 23:35:24,15.08841046,0.0002607,53.2184,88.0881,39.8212,320.2971,-0.00010111,-1.897e-05,0.0,0 STARLINK-3127,1 49450U 21104AU  22355.98292560 -.00001897  00000-0 -10111-3 0  9992,2 49450  53.2184  88.0881 0002607  39.8212 320.2971 15.08841046 62650,6917.877,95.437,541.5459999999998,537.939,0.0
49450.0,STARLINK-3127,PAYLOAD,2022-12-22 12:18:30,15.08836032,0.0002503,53.2185,85.7089,37.7373,322.3794,-4.898e-05,-1.068e-05,0.0,0 STARLINK-3127,1 49450U 21104AU  22356.51284799 -.00001068  00000-0 -48980-4 0  9993,2 49450  53.2185  85.7089 0002503  37.7373 322.3794 15.08836032 61929,6917.893,95.438,541.489,538.026,0.0
